CCSDS_OMM_VERS = 2.0
CREATION_DATE  = 
ORIGINATOR     = 

OBJECT_NAME    = COSMOS 2242
OBJECT_ID      = 1993-024A
CENTER_NAME    = EARTH
REF_FRAME      = TEME
TIME_SYSTEM    = UTC
MEAN_ELEMENT_THEORY = SGP/SGP4

EPOCH          = 2026-03-12T23:29:46.254048
MEAN_MOTION    = 14.96563844
ECCENTRICITY   = .0015006
INCLINATION    = 82.5155
RA_OF_ASC_NODE = 263.5694
ARG_OF_PERICENTER = 296.8632
MEAN_ANOMALY   = 63.1056

EPHEMERIS_TYPE = 0
CLASSIFICATION_TYPE = U
NORAD_CAT_ID   = 22626
ELEMENT_SET_NO = 999
REV_AT_EPOCH   = 78088
BSTAR          = .18521E-3
MEAN_MOTION_DOT = .2137E-4
MEAN_MOTION_DDOT = 0

CCSDS_OMM_VERS = 2.0
CREATION_DATE  = 
ORIGINATOR     = 

OBJECT_NAME    = SL-16 R/B
OBJECT_ID      = 1993-059B
CENTER_NAME    = EARTH
REF_FRAME      = TEME
TIME_SYSTEM    = UTC
MEAN_ELEMENT_THEORY = SGP/SGP4

EPOCH          = 2026-03-12T12:17:07.942272
MEAN_MOTION    = 14.17231383
ECCENTRICITY   = .0018365
INCLINATION    = 70.9929
RA_OF_ASC_NODE = 5.1749
ARG_OF_PERICENTER = 212.4075
MEAN_ANOMALY   = 147.5922

EPHEMERIS_TYPE = 0
CLASSIFICATION_TYPE = U
NORAD_CAT_ID   = 22803
ELEMENT_SET_NO = 999
REV_AT_EPOCH   = 67993
BSTAR          = -.33432E-5
MEAN_MOTION_DOT = -.55E-6
MEAN_MOTION_DDOT = 0

CCSDS_OMM_VERS = 2.0
CREATION_DATE  = 
ORIGINATOR     = 

OBJECT_NAME    = ARIANE 40 R/B
OBJECT_ID      = 1993-061H
CENTER_NAME    = EARTH
REF_FRAME      = TEME
TIME_SYSTEM    = UTC
MEAN_ELEMENT_THEORY = SGP/SGP4

EPOCH          = 2026-03-12T18:30:24.239232
MEAN_MOTION    = 14.32862842
ECCENTRICITY   = .0009574
INCLINATION    = 98.4910
RA_OF_ASC_NODE = 140.5978
ARG_OF_PERICENTER = 274.8814
MEAN_ANOMALY   = 85.1277

EPHEMERIS_TYPE = 0
CLASSIFICATION_TYPE = U
NORAD_CAT_ID   = 22830
ELEMENT_SET_NO = 999
REV_AT_EPOCH   = 69454
BSTAR          = .10186E-3
MEAN_MOTION_DOT = .235E-5
MEAN_MOTION_DDOT = 0

CCSDS_OMM_VERS = 2.0
CREATION_DATE  = 
ORIGINATOR     = 

OBJECT_NAME    = COSMOS 2278
OBJECT_ID      = 1994-023A
CENTER_NAME    = EARTH
REF_FRAME      = TEME
TIME_SYSTEM    = UTC
MEAN_ELEMENT_THEORY = SGP/SGP4

EPOCH          = 2026-03-12T17:01:45.020640
MEAN_MOTION    = 14.14379509
ECCENTRICITY   = .0008293
INCLINATION    = 71.0552
RA_OF_ASC_NODE = 168.7804
ARG_OF_PERICENTER = 7.5290
MEAN_ANOMALY   = 352.5956

EPHEMERIS_TYPE = 0
CLASSIFICATION_TYPE = U
NORAD_CAT_ID   = 23087
ELEMENT_SET_NO = 999
REV_AT_EPOCH   = 64523
BSTAR          = .1898E-4
MEAN_MOTION_DOT = -.11E-6
MEAN_MOTION_DDOT = 0

CCSDS_OMM_VERS = 2.0
CREATION_DATE  = 
ORIGINATOR     = 

OBJECT_NAME    = SL-16 R/B
OBJECT_ID      = 1994-023B
CENTER_NAME    = EARTH
REF_FRAME      = TEME
TIME_SYSTEM    = UTC
MEAN_ELEMENT_THEORY = SGP/SGP4

EPOCH          = 2026-03-12T23:12:05.821056
MEAN_MOTION    = 14.15010758
ECCENTRICITY   = .0005679
INCLINATION    = 70.9985
RA_OF_ASC_NODE = 64.0041
ARG_OF_PERICENTER = 282.5687
MEAN_ANOMALY   = 77.4800

EPHEMERIS_TYPE = 0
CLASSIFICATION_TYPE = U
NORAD_CAT_ID   = 23088
ELEMENT_SET_NO = 999
REV_AT_EPOCH   = 64655
BSTAR          = -.8217E-4
MEAN_MOTION_DOT = -.207E-5
MEAN_MOTION_DDOT = 0

CCSDS_OMM_VERS = 2.0
CREATION_DATE  = 
ORIGINATOR     = 

OBJECT_NAME    = SL-16 R/B
OBJECT_ID      = 1994-074B
CENTER_NAME    = EARTH
REF_FRAME      = TEME
TIME_SYSTEM    = UTC
MEAN_ELEMENT_THEORY = SGP/SGP4

EPOCH          = 2026-03-12T17:07:14.141568
MEAN_MOTION    = 14.79412069
ECCENTRICITY   = .0006035
INCLINATION    = 97.7106
RA_OF_ASC_NODE = 102.4086
ARG_OF_PERICENTER = 199.4350
MEAN_ANOMALY   = 283.4668

EPHEMERIS_TYPE = 0
CLASSIFICATION_TYPE = U
NORAD_CAT_ID   = 23343
ELEMENT_SET_NO = 999
REV_AT_EPOCH   = 68769
BSTAR          = .86804E-4
MEAN_MOTION_DOT = .598E-5
MEAN_MOTION_DDOT = 0

CCSDS_OMM_VERS = 2.0
CREATION_DATE  = 
ORIGINATOR     = 

OBJECT_NAME    = SL-16 R/B
OBJECT_ID      = 1994-077B
CENTER_NAME    = EARTH
REF_FRAME      = TEME
TIME_SYSTEM    = UTC
MEAN_ELEMENT_THEORY = SGP/SGP4

EPOCH          = 2026-03-12T04:04:29.138016
MEAN_MOTION    = 14.15561637
ECCENTRICITY   = .0002954
INCLINATION    = 70.9853
RA_OF_ASC_NODE = 347.2721
ARG_OF_PERICENTER = 208.8129
MEAN_ANOMALY   = 151.2831

EPHEMERIS_TYPE = 0
CLASSIFICATION_TYPE = U
NORAD_CAT_ID   = 23405
ELEMENT_SET_NO = 999
REV_AT_EPOCH   = 61658
BSTAR          = .78284365E-4
MEAN_MOTION_DOT = .105E-5
MEAN_MOTION_DDOT = 0

CCSDS_OMM_VERS = 2.0
CREATION_DATE  = 
ORIGINATOR     = 

OBJECT_NAME    = ARIANE 40+ R/B
OBJECT_ID      = 1995-021B
CENTER_NAME    = EARTH
REF_FRAME      = TEME
TIME_SYSTEM    = UTC
MEAN_ELEMENT_THEORY = SGP/SGP4

EPOCH          = 2026-03-12T17:53:18.900096
MEAN_MOTION    = 14.39774980
ECCENTRICITY   = .0007761
INCLINATION    = 98.4492
RA_OF_ASC_NODE = 143.1865
ARG_OF_PERICENTER = 128.3405
MEAN_ANOMALY   = 343.1943

EPHEMERIS_TYPE = 0
CLASSIFICATION_TYPE = U
NORAD_CAT_ID   = 23561
ELEMENT_SET_NO = 999
REV_AT_EPOCH   = 61968
BSTAR          = .12127E-3
MEAN_MOTION_DOT = .337E-5
MEAN_MOTION_DDOT = 0

CCSDS_OMM_VERS = 2.0
CREATION_DATE  = 
ORIGINATOR     = 

OBJECT_NAME    = SL-16 R/B
OBJECT_ID      = 1995-058B
CENTER_NAME    = EARTH
REF_FRAME      = TEME
TIME_SYSTEM    = UTC
MEAN_ELEMENT_THEORY = SGP/SGP4

EPOCH          = 2026-03-12T17:48:49.547232
MEAN_MOTION    = 14.15497449
ECCENTRICITY   = .0010649
INCLINATION    = 71.0225
RA_OF_ASC_NODE = 173.8469
ARG_OF_PERICENTER = 120.1829
MEAN_ANOMALY   = 240.0350

EPHEMERIS_TYPE = 0
CLASSIFICATION_TYPE = U
NORAD_CAT_ID   = 23705
ELEMENT_SET_NO = 999
REV_AT_EPOCH   = 56828
BSTAR          = .18601E-3
MEAN_MOTION_DOT = .316E-5
MEAN_MOTION_DDOT = 0

CCSDS_OMM_VERS = 2.0
CREATION_DATE  = 
ORIGINATOR     = 

OBJECT_NAME    = SL-16 R/B
OBJECT_ID      = 1996-051B
CENTER_NAME    = EARTH
REF_FRAME      = TEME
TIME_SYSTEM    = UTC
MEAN_ELEMENT_THEORY = SGP/SGP4

EPOCH          = 2026-03-12T17:10:24.841920
MEAN_MOTION    = 14.12416562
ECCENTRICITY   = .0014828
INCLINATION    = 70.7604
RA_OF_ASC_NODE = 168.8345
ARG_OF_PERICENTER = 143.3945
MEAN_ANOMALY   = 216.8191

EPHEMERIS_TYPE = 0
CLASSIFICATION_TYPE = U
NORAD_CAT_ID   = 24298
ELEMENT_SET_NO = 999
REV_AT_EPOCH   = 52207
BSTAR          = .74448E-4
MEAN_MOTION_DOT = .88E-6
MEAN_MOTION_DDOT = 0

CCSDS_OMM_VERS = 2.0
CREATION_DATE  = 
ORIGINATOR     = 

OBJECT_NAME    = ORBVIEW 2 (SEASTAR)
OBJECT_ID      = 1997-037A
CENTER_NAME    = EARTH
REF_FRAME      = TEME
TIME_SYSTEM    = UTC
MEAN_ELEMENT_THEORY = SGP/SGP4

EPOCH          = 2026-03-12T09:57:42.708960
MEAN_MOTION    = 14.35497264
ECCENTRICITY   = .0003027
INCLINATION    = 98.8572
RA_OF_ASC_NODE = 235.7991
ARG_OF_PERICENTER = 66.4464
MEAN_ANOMALY   = 293.7039

EPHEMERIS_TYPE = 0
CLASSIFICATION_TYPE = U
NORAD_CAT_ID   = 24883
ELEMENT_SET_NO = 999
REV_AT_EPOCH   = 50886
BSTAR          = .14441E-3
MEAN_MOTION_DOT = .369E-5
MEAN_MOTION_DDOT = 0

CCSDS_OMM_VERS = 2.0
CREATION_DATE  = 
ORIGINATOR     = 

OBJECT_NAME    = SL-16 R/B
OBJECT_ID      = 1998-043G
CENTER_NAME    = EARTH
REF_FRAME      = TEME
TIME_SYSTEM    = UTC
MEAN_ELEMENT_THEORY = SGP/SGP4

EPOCH          = 2026-03-12T19:39:02.961792
MEAN_MOTION    = 14.26050651
ECCENTRICITY   = .0010062
INCLINATION    = 98.8257
RA_OF_ASC_NODE = 25.2043
ARG_OF_PERICENTER = 11.7495
MEAN_ANOMALY   = 348.3918

EPHEMERIS_TYPE = 0
CLASSIFICATION_TYPE = U
NORAD_CAT_ID   = 25400
ELEMENT_SET_NO = 999
REV_AT_EPOCH   = 43943
BSTAR          = .55455E-4
MEAN_MOTION_DOT = .87E-6
MEAN_MOTION_DDOT = 0

